#aV2016  1 17  0  0  0.00000000     288 DD+AD WGS84 FIT  NGA
## 1880      0.00000000   300.00000000 57404 0.0000000000000
+   31     1  2  3  5  6  7  8  9 10 11 12 13 14 15 16 17 18
+         19 20 21 22 23 24 25 26 27 28 29 30 31 32  0  0  0
+          0  0  0  0  0  0  0  0  0  0  0  0  0  0  0  0  0
+          0  0  0  0  0  0  0  0  0  0  0  0  0  0  0  0  0
+          0  0  0  0  0  0  0  0  0  0  0  0  0  0  0  0  0
++         2  2  2  2  2  2  2  2  2  2  2  2  2  2  2  2  2
++         2  2  2  2  2  2  2  2  2  2  2  2  2  2  0  0  0
++         0  0  0  0  0  0  0  0  0  0  0  0  0  0  0  0  0
++         0  0  0  0  0  0  0  0  0  0  0  0  0  0  0  0  0
++         0  0  0  0  0  0  0  0  0  0  0  0  0  0  0  0  0
%c cc cc ccc ccc cccc cccc cccc cccc ccccc ccccc ccccc ccccc
%c cc cc ccc ccc cccc cccc cccc cccc ccccc ccccc ccccc ccccc
%f  0.0000000  0.000000000  0.00000000000  0.000000000000000
%f  0.0000000  0.000000000  0.00000000000  0.000000000000000
%i    0    0    0    0      0      0      0      0         0
%i    0    0    0    0      0      0      0      0         0
/*      NGA, ST. LOUIS,MO.                                  
/*   EPHEMERIS COMPUTED FROM 2 DAYS OF DATA                 
/*   EPOCHA v2.4 SMOOTHER                                   
/*   G1762 IERS2010 SATAF SATAPC                            
*  2016  1 17 21 15  0.00000000
P  1 -21478.064834 -11812.878313  10417.189705      9.389214                    
V  1  -7597.832357 -11099.513380 -27843.507656      0.009544                    
P  2  11779.469998  21780.716737  10573.293651    599.231128                    
V  2 -10971.583674  -6919.515320  27133.379173      0.002735                    
P  3 -14537.444972  -4645.487414  21736.267777    -12.859724                    
V  3   7496.085203 -26573.444636   -680.797840     -0.050011                    
P  5   4301.782859  22249.903721 -13764.226101   -154.471186                    
V  5  -7083.952341  16189.951705  24272.231869      0.035203                    
P  6   -807.702560  18269.016231  19270.046174    130.770749                    
V  6 -18047.160761 -16540.449724  14919.363503      0.061999                    
P  7 -16876.358573   2423.298049 -20335.909430    473.367821                    
V  7 -17159.370962 -19533.676000  11457.095086     -0.014447                    
P  8 -18299.424281  -7835.856458 -17531.304613    -20.416059                    
V  8  21211.308120  -7286.574487 -18814.734896     -0.014388                    
P  9 -25159.996341   8238.858268  -2216.129455     51.987944                    
V  9  -3455.280485  -2153.986185  31467.681473      0.078483                    
P 10  10862.669255 -23432.811143  -6075.529722     49.396291                    
V 10    648.889853   8201.051326 -30486.136210     -0.004598                    
P 11 -24297.524412 -10741.337428    616.132965   -627.754626                    
V 11    738.121125  -4955.309361 -30196.819839     -0.020463                    
P 12  12056.015168   9031.576650  21790.645975    361.666268                    
V 12  -9052.553606  26307.681424  -5653.100267      0.027345                    
P 13   9737.141795  13136.695253 -21047.889908   -179.132590                    
V 13 -26040.709687   4382.216957  -9462.475644     -0.025860                    
P 14  15354.914971 -14291.129670  16452.718962      8.594525                    
V 14  20478.110988  -1784.013240 -21125.145765     -0.023275                    
P 15  21397.537412   5113.541293 -15240.598466   -292.743144                    
V 15 -17480.914462   8021.466541 -21680.504143     -0.018669                    
P 16  -1797.227758 -22355.601512 -14000.085540    -47.502429                    
V 16   7520.842986 -16150.249088  25340.756978      0.032717                    
P 17 -15871.034380  14346.629332  15929.658148   -198.949810                    
V 17 -19614.093612   2385.395511 -22338.361687     -0.007705                    
P 18  15352.339424 -15005.271087 -14948.318898    474.086135                    
V 18  -1852.204538  20264.364392 -21781.533329      0.038674                    
P 19 -16438.453781  13581.247067  15901.515151   -524.475716                    
V 19 -20371.447683   1720.062881 -21799.148676     -0.001727                    
P 20  14591.765673   7646.642626 -20986.856751    386.415639                    
V 20  -5737.624970  25811.276773   5516.805043      0.026800                    
P 21  14634.600655  -6753.606367 -20426.813425   -505.746948                    
V 21  19291.130203  19847.299664   6720.990662     -0.020298                    
P 22   2910.719364 -25964.773453   4581.581732    410.064922                    
V 22   5259.524635  -4457.054895 -30245.166947     -0.046645                    
P 23 -25188.898814   -424.864778   9251.294833   -155.461290                    
V 23  10401.395885  -5323.352567  28175.107548     -0.019212                    
P 24  21619.357057  13591.556551   7600.585831    -10.914523                    
V 24   4962.731101   8758.978857 -29418.757457     -0.005885                    
P 25  15863.848559  -6105.723465  20254.326573   -101.233113                    
V 25  -6052.935755  25255.171659  12470.864573     -0.064107                    
P 26   4141.824645 -25903.586976  -4038.571367   -215.483359                    
V 26   4065.466786  -4218.526694  31218.450510     -0.165549                    
P 27  -8049.274797 -13216.775601 -21622.894381     54.325245                    
V 27  26384.524380  -7245.784333  -5258.054305      0.034577                    
P 28 -12081.725789  22801.716469  -5513.525685    496.036332                    
V 28    774.424947  -8035.753515 -31390.868048      0.026727                    
P 29  26096.936910  -4785.337817    585.809238    651.974239                    
V 29   -245.909899   2467.792207  32102.862529      0.011173                    
P 30  -9171.108116  12695.500124 -21446.884282     85.549333                    
V 30 -18013.273756 -20463.641214  -4489.461014      0.046977                    
P 31   -218.221209 -18951.607740  18570.656913    286.606203                    
V 31  16922.392101  16285.297319  17276.579611     -0.015794                    
P 32  -7858.218529 -17430.840637  18568.504095     84.323345                    
V 32   9431.991437 -21682.270508 -15763.666063      0.128425                    
EOF
